NORAD_CAT_ID,OBJECT_NAME,OBJECT_TYPE,EPOCH,MEAN_MOTION,ECCENTRICITY,INCLINATION,RA_OF_ASC_NODE,ARG_OF_PERICENTER,MEAN_ANOMALY,BSTAR,MEAN_MOTION_DOT,MEAN_MOTION_DDOT,TLE_LINE0,TLE_LINE1,TLE_LINE2,SEMIMAJOR_AXIS,PERIOD,APOGEE,PERIGEE,DECAYED
55925.0,STARLINK-5922,PAYLOAD,2023-09-24 14:23:46,14.98331381,0.0003216,70.0015,46.2668,269.0064,91.0727,-2.721e-06,-1.25e-06,0.0,0 STARLINK-5922,1 55925U 23037M   23267.59984706 -.00000125  00000-0 -27210-5 0  9996,2 55925  70.0015  46.2668 0003216 269.0064  91.0727 14.98331381 29112,6950.189,96.107,574.289,569.818,0.0
55925.0,STARLINK-5922,PAYLOAD,2023-09-24 17:36:02,14.98334587,0.0003499,70.0015,45.9307,275.2494,84.8266,5.7645e-05,5.95e-06,0.0,0 STARLINK-5922,1 55925U 23037M   23267.73336316  .00000595  00000-0  57645-4 0  9993,2 55925  70.0015  45.9307 0003499 275.2494  84.8266 14.98334587 29475,6950.179,96.107,574.476,569.612,0.0
55925.0,STARLINK-5922,PAYLOAD,2023-09-24 19:12:10,14.98337839,0.0003282,70.0013,45.762,270.2301,89.8482,2.367e-05,1.89e-06,0.0,0 STARLINK-5922,1 55925U 23037M   23267.80012159  .00000189  00000-0  23670-4 0  9997,2 55925  70.0013  45.7620 0003282 270.2301  89.8482 14.98337839 29143,6950.169,96.106,574.315,569.753,0.0
55925.0,STARLINK-5922,PAYLOAD,2023-09-25 11:13:32,14.98324725,0.000303,70.0017,44.078,274.0176,86.0637,-2.4697e-05,-3.88e-06,0.0,0 STARLINK-5922,1 55925U 23037M   23268.46773182 -.00000388  00000-0 -24697-4 0  9993,2 55925  70.0017  44.0780 0003030 274.0176  86.0637 14.98324725 29588,6950.209,96.107,574.18,569.968,0.0
55925.0,STARLINK-5922,PAYLOAD,2023-09-25 12:49:40,14.98324238,0.0003056,70.0017,43.9096,273.8495,86.2314,-2.298e-05,-3.67e-06,0.0,0 STARLINK-5922,1 55925U 23037M   23268.53449221 -.00000367  00000-0 -22980-4 0  9995,2 55925  70.0017  43.9096 0003056 273.8495  86.2314 14.98324238 29252,6950.211,96.107,574.2,569.952,0.0
55925.0,STARLINK-5922,PAYLOAD,2023-09-25 19:14:11,14.98330634,0.0003078,70.0017,43.2365,273.2775,86.8032,1.6087e-05,9.9e-07,0.0,0 STARLINK-5922,1 55925U 23037M   23268.80152738  .00000099  00000-0  16087-4 0  9990,2 55925  70.0017  43.2365 0003078 273.2775  86.8032 14.98330634 29297,6950.191,96.107,574.195,569.917,0.0
55925.0,STARLINK-5922,PAYLOAD,2023-09-26 09:39:25,14.9832587,0.0002994,70.0018,41.7218,273.5838,86.4979,-4.9398e-05,-6.82e-06,0.0,0 STARLINK-5922,1 55925U 23037M   23269.40237282 -.00000682  00000-0 -49398-4 0  9996,2 55925  70.0018  41.7218 0002994 273.5838  86.4979 14.98325870 29727,6950.206,96.107,574.152,569.99,0.0
55925.0,STARLINK-5922,PAYLOAD,2023-09-26 12:51:41,14.98306733,0.0002905,70.0022,41.3851,275.6545,84.4283,0.00027698,3.211e-05,0.0,0 STARLINK-5922,1 55925U 23037M   23269.53589544  .00003211  00000-0  27698-3 0  9998,2 55925  70.0022  41.3851 0002905 275.6545  84.4283 14.98306733 29409,6950.265,96.108,574.149,570.111,0.0
55925.0,STARLINK-5922,PAYLOAD,2023-09-26 19:16:12,14.98331369,0.0002943,70.0022,40.7117,275.0299,85.0524,4.0587e-05,3.91e-06,0.0,0 STARLINK-5922,1 55925U 23037M   23269.80292749  .00000391  00000-0  40587-4 0  9995,2 55925  70.0022  40.7117 0002943 275.0299  85.0524 14.98331369 29441,6950.189,96.107,574.099,570.008,0.0
55925.0,STARLINK-5922,PAYLOAD,2023-09-27 01:40:45,14.98336883,0.0003014,70.0021,40.0384,274.7789,85.3026,-0.00010957,-1.4e-05,0.0,0 STARLINK-5922,1 55925U 23037M   23270.06996701 -.00001400  00000-0 -10957-3 0  9995,2 55925  70.0021  40.0384 0003014 274.7789  85.3026 14.98336883 29827,6950.172,96.107,574.131,569.942,0.0
55925.0,STARLINK-5922,PAYLOAD,2023-09-27 12:53:41,14.98327787,0.000293,70.0022,38.8604,277.3268,82.7558,3.5465e-05,3.3e-06,0.0,0 STARLINK-5922,1 55925U 23037M   23270.53729001  .00000330  00000-0  35465-4 0  9995,2 55925  70.0022  38.8604 0002930 277.3268  82.7558 14.98327787 29559,6950.2,96.107,574.101,570.028,0.0
55925.0,STARLINK-5922,PAYLOAD,2023-09-27 17:42:05,14.98328436,0.00029,70.0022,38.3559,275.2407,84.8421,4.607e-05,4.57e-06,0.0,0 STARLINK-5922,1 55925U 23037M   23270.73756940  .00000457  00000-0  46070-4 0  9993,2 55925  70.0022  38.3559 0002900 275.2407  84.8421 14.98328436 29927,6950.198,96.107,574.078,570.047,0.0
55925.0,STARLINK-5922,PAYLOAD,2023-09-28 14:31:50,14.98331271,0.0002972,70.0022,36.1681,272.5815,87.5004,2.8411e-06,-5.9e-07,0.0,0 STARLINK-5922,1 55925U 23037M   23271.60544832 -.00000059  00000-0  28411-5 0  9994,2 55925  70.0022  36.1681 0002972 272.5815  87.5004 14.98331271 29716,6950.189,96.107,574.12,569.988,0.0
55925.0,STARLINK-5922,PAYLOAD,2023-09-28 17:44:06,14.98331809,0.0002976,70.0023,35.8315,272.7087,87.3732,8.0524e-06,3e-08,0.0,0 STARLINK-5922,1 55925U 23037M   23271.73896769  .00000003  00000-0  80524-5 0  9998,2 55925  70.0023  35.8315 0002976 272.7087  87.3732 14.98331809 30078,6950.187,96.107,574.121,569.984,0.0
55925.0,STARLINK-5922,PAYLOAD,2023-09-29 12:57:43,14.98327804,0.0002967,70.0024,33.812,273.5972,86.4847,-1.7587e-05,-3.03e-06,0.0,0 STARLINK-5922,1 55925U 23037M   23272.54009128 -.00000303  00000-0 -17587-4 0  9996,2 55925  70.0024  33.8120 0002967 273.5972  86.4847 14.98327804 29854,6950.2,96.107,574.127,570.003,0.0
55925.0,STARLINK-5922,PAYLOAD,2023-09-29 17:46:07,14.983307,0.0002871,70.0025,33.3071,270.2035,89.8795,2.0813e-05,1.55e-06,0.0,0 STARLINK-5922,1 55925U 23037M   23272.74036816  .00000155  00000-0  20813-4 0  9991,2 55925  70.0025  33.3071 0002871 270.2035  89.8795 14.98330700 30224,6950.191,96.107,574.051,570.06,0.0
55925.0,STARLINK-5922,PAYLOAD,2023-09-30 01:46:48,14.98325096,0.0002748,70.0031,32.4651,275.1764,84.9082,-6.5212e-05,-8.71e-06,0.0,0 STARLINK-5922,1 55925U 23037M   23273.07417514 -.00000871  00000-0 -65212-4 0  9995,2 55925  70.0031  32.4651 0002748 275.1764  84.9082 14.98325096 30273,6950.208,96.107,573.983,570.163,0.0
55925.0,STARLINK-5922,PAYLOAD,2023-10-01 01:48:49,14.98331937,0.0003111,70.0018,29.9394,269.6574,90.4228,7.4643e-05,7.98e-06,0.0,0 STARLINK-5922,1 55925U 23037M   23274.07556857  .00000798  00000-0  74643-4 0  9994,2 55925  70.0018  29.9394 0003111 269.6574  90.4228 14.98331937 30427,6950.187,96.107,574.214,569.89,0.0
55925.0,STARLINK-5922,PAYLOAD,2023-10-01 13:01:44,14.98341751,0.0003133,70.0011,28.7608,270.9803,89.0997,0.00015292,1.733e-05,0.0,0 STARLINK-5922,1 55925U 23037M   23274.54287835  .00001733  00000-0  15292-3 0  9997,2 55925  70.0011  28.7608 0003133 270.9803  89.0997 14.98341751 30498,6950.157,96.106,574.199,569.844,0.0
55925.0,STARLINK-5922,PAYLOAD,2023-10-01 14:37:52,14.98348831,0.0003156,70.0009,28.5928,271.7894,88.2903,0.00020317,2.333e-05,0.0,0 STARLINK-5922,1 55925U 23037M   23274.60963180  .00002333  00000-0  20317-3 0  9999,2 55925  70.0009  28.5928 0003156 271.7894  88.2903 14.98348831 30160,6950.135,96.106,574.193,569.806,0.0
55925.0,STARLINK-5922,PAYLOAD,2023-10-01 17:50:08,14.98350419,0.0003091,70.0011,28.2561,272.79,87.2906,0.0002201,2.536e-05,0.0,0 STARLINK-5922,1 55925U 23037M   23274.74314901  .00002536  00000-0  22010-3 0  9992,2 55925  70.0011  28.2561 0003091 272.7900  87.2906 14.98350419 30527,6950.13,96.106,574.143,569.846,0.0
55925.0,STARLINK-5922,PAYLOAD,2023-10-02 09:51:30,14.98321811,0.0003006,70.001,26.573,273.2209,86.8606,3.7122e-05,3.5e-06,0.0,0 STARLINK-5922,1 55925U 23037M   23275.41077146  .00000350  00000-0  37122-4 0  9997,2 55925  70.0010  26.5730 0003006 273.2209  86.8606 14.98321811 30626,6950.218,96.108,574.172,569.994,0.0
55925.0,STARLINK-5922,PAYLOAD,2023-10-02 17:52:10,14.98327371,0.0003143,70.0007,25.7313,270.1937,89.8862,2.8554e-05,2.48e-06,0.0,0 STARLINK-5922,1 55925U 23037M   23275.74456866  .00000248  00000-0  28554-4 0  9998,2 55925  70.0007  25.7313 0003143 270.1937  89.8862 14.98327371 30338,6950.201,96.107,574.25,569.882,0.0
55925.0,STARLINK-5922,PAYLOAD,2023-10-03 11:29:39,14.98337969,0.0003,70.0008,23.88,266.8981,93.1835,-0.00013482,-1.702e-05,0.0,0 STARLINK-5922,1 55925U 23037M   23276.47892511 -.00001702  00000-0 -13482-3 0  9991,2 55925  70.0008  23.8800 0003000 266.8981  93.1835 14.98337969 30783,6950.168,96.106,574.118,569.948,0.0
55925.0,STARLINK-5922,PAYLOAD,2023-10-03 14:41:54,14.9834219,0.000302,70.0006,23.5429,267.4359,92.6454,-0.00011909,-1.514e-05,0.0,0 STARLINK-5922,1 55925U 23037M   23276.61244120 -.00001514  00000-0 -11909-3 0  9997,2 55925  70.0006  23.5429 0003020 267.4359  92.6454 14.98342190 30461,6950.155,96.106,574.119,569.921,0.0
55925.0,STARLINK-5922,PAYLOAD,2023-10-03 16:18:02,14.9834481,0.0002971,70.0008,23.3748,267.5992,92.4827,-8.5275e-05,-1.111e-05,0.0,0 STARLINK-5922,1 55925U 23037M   23276.67919803 -.00001111  00000-0 -85275-4 0  9991,2 55925  70.0008  23.3748 0002971 267.5992  92.4827 14.98344810 30815,6950.147,96.106,574.077,569.947,0.0
55925.0,STARLINK-5922,PAYLOAD,2023-10-04 09:55:31,14.9832834,0.000279,70.0013,21.5237,261.0535,99.0308,0.0001059,1.171e-05,0.0,0 STARLINK-5922,1 55925U 23037M   23277.41356050  .00001171  00000-0  10590-3 0  9994,2 55925  70.0013  21.5237 0002790 261.0535  99.0308 14.98328340 30924,6950.198,96.107,574.002,570.124,0.0
55925.0,STARLINK-5922,PAYLOAD,2023-10-04 13:07:47,14.98330781,0.0002795,70.0012,21.1868,261.7612,98.323,0.00012548,1.405e-05,0.0,0 STARLINK-5922,1 55925U 23037M   23277.54707848  .00001405  00000-0  12548-3 0  9998,2 55925  70.0012  21.1868 0002795 261.7612  98.3230 14.98330781 30600,6950.19,96.107,573.998,570.113,0.0
55925.0,STARLINK-5922,PAYLOAD,2023-10-04 16:20:03,14.98332709,0.0002771,70.0013,20.8503,262.966,97.1184,0.00014265,1.61e-05,0.0,0 STARLINK-5922,1 55925U 23037M   23277.68059674  .00001610  00000-0  14265-3 0  9996,2 55925  70.0013  20.8503 0002771 262.9660  97.1184 14.98332709 30622,6950.185,96.107,573.975,570.124,0.0
55925.0,STARLINK-5922,PAYLOAD,2023-10-05 09:57:32,14.98328969,0.0002758,70.001,18.9984,269.1703,90.914,-5.6789e-05,-7.7e-06,0.0,0 STARLINK-5922,1 55925U 23037M   23278.41496411 -.00000770  00000-0 -56789-4 0  9998,2 55925  70.0010  18.9984 0002758 269.1703  90.9140 14.98328969 31078,6950.196,96.107,573.978,570.144,0.0
